NORAD_CAT_ID,OBJECT_NAME,OBJECT_TYPE,EPOCH,MEAN_MOTION,ECCENTRICITY,INCLINATION,RA_OF_ASC_NODE,ARG_OF_PERICENTER,MEAN_ANOMALY,BSTAR,MEAN_MOTION_DOT,MEAN_MOTION_DDOT,TLE_LINE0,TLE_LINE1,TLE_LINE2,SEMIMAJOR_AXIS,PERIOD,APOGEE,PERIGEE,DECAYED
51729.0,STARLINK-3523,PAYLOAD,2024-07-05 05:30:32,15.08835716,0.0001314,53.2157,188.5614,90.092,270.0223,2.074e-05,4.2e-07,0.0,0 STARLINK-3523,1 51729U 22016R   24187.22954376  .00000042  00000-0  20740-4 0  9998,2 51729  53.2157 188.5614 0001314  90.0920 270.0223 15.08835716132232,6917.893,95.438,540.667,538.849,0.0
51729.0,STARLINK-3523,PAYLOAD,2024-07-05 07:05:55,15.08836234,0.0001286,53.2155,188.2637,89.1058,271.0081,8.5273e-06,-1.52e-06,0.0,0 STARLINK-3523,1 51729U 22016R   24187.29578382 -.00000152  00000-0  85273-5 0  9990,2 51729  53.2155 188.2637 0001286  89.1058 271.0081 15.08836234131116,6917.892,95.438,540.647,538.867,0.0
51729.0,STARLINK-3523,PAYLOAD,2024-07-05 16:38:14,15.08838349,0.0001292,53.2156,186.4794,88.5655,271.5485,2.6021e-05,1.26e-06,0.0,0 STARLINK-3523,1 51729U 22016R   24187.69322246  .00000126  00000-0  26021-4 0  9995,2 51729  53.2156 186.4794 0001292  88.5655 271.5485 15.08838349131172,6917.885,95.438,540.644,538.857,0.0
51729.0,STARLINK-3523,PAYLOAD,2024-07-06 06:56:42,15.08835273,0.0001355,53.2162,183.8044,91.7111,268.4036,1.716e-05,-1.5e-07,0.0,0 STARLINK-3523,1 51729U 22016R   24188.28938610 -.00000015  00000-0  17160-4 0  9991,2 51729  53.2162 183.8044 0001355  91.7111 268.4036 15.08835273132396,6917.895,95.438,540.697,538.822,0.0
51729.0,STARLINK-3523,PAYLOAD,2024-07-06 16:29:01,15.08837334,0.0001373,53.2167,182.0198,89.5821,270.5329,3.329e-05,2.42e-06,0.0,0 STARLINK-3523,1 51729U 22016R   24188.68682460  .00000242  00000-0  33290-4 0  9997,2 51729  53.2167 182.0198 0001373  89.5821 270.5329 15.08837334131326,6917.889,95.438,540.703,538.804,0.0
51729.0,STARLINK-3523,PAYLOAD,2024-07-07 08:22:53,15.08836731,0.0001387,53.2165,179.0471,95.0434,265.0717,6.4672e-05,7.41e-06,0.0,0 STARLINK-3523,1 51729U 22016R   24189.34922541  .00000741  00000-0  64672-4 0  9990,2 51729  53.2165 179.0471 0001387  95.0434 265.0717 15.08836731132557,6917.89,95.438,540.715,538.796,0.0
51729.0,STARLINK-3523,PAYLOAD,2024-07-08 08:13:40,15.08838595,0.0001375,53.2162,174.5848,87.4226,272.6923,5.1758e-05,5.36e-06,0.0,0 STARLINK-3523,1 51729U 22016R   24190.34282601  .00000536  00000-0  51758-4 0  9991,2 51729  53.2162 174.5848 0001375  87.4226 272.6923 15.08838595131577,6917.885,95.438,540.701,538.798,0.0
51729.0,STARLINK-3523,PAYLOAD,2024-07-08 20:56:45,15.08836445,0.0001347,53.2158,172.2051,94.801,265.3136,3.0229e-05,1.93e-06,0.0,0 STARLINK-3523,1 51729U 22016R   24190.87274793  .00000193  00000-0  30229-4 0  9991,2 51729  53.2158 172.2051 0001347  94.8010 265.3136 15.08836445132786,6917.891,95.438,540.688,538.824,0.0
51729.0,STARLINK-3523,PAYLOAD,2024-07-09 06:29:04,15.08839538,0.000134,53.2158,170.4203,97.2213,262.8931,2.8241e-05,1.62e-06,0.0,0 STARLINK-3523,1 51729U 22016R   24191.27018617  .00000162  00000-0  28241-4 0  9994,2 51729  53.2158 170.4203 0001340  97.2213 262.8931 15.08839538131713,6917.882,95.438,540.674,538.82,0.0
51729.0,STARLINK-3523,PAYLOAD,2024-07-09 22:22:55,15.08839135,0.0001334,53.2156,167.4461,97.8542,262.2602,2.4522e-05,1.02e-06,0.0,0 STARLINK-3523,1 51729U 22016R   24191.93258675  .00000102  00000-0  24522-4 0  9999,2 51729  53.2156 167.4461 0001334  97.8542 262.2602 15.08839135131810,6917.883,95.438,540.671,538.825,0.0
51729.0,STARLINK-3523,PAYLOAD,2024-07-10 04:44:28,15.08837984,0.0001354,53.2158,166.2575,94.889,265.2257,1.2396e-05,-9.1e-07,0.0,0 STARLINK-3523,1 51729U 22016R   24192.19754817 -.00000091  00000-0  12396-4 0  9991,2 51729  53.2158 166.2575 0001354  94.8890 265.2257 15.08837984132988,6917.887,95.438,540.688,538.815,0.0
51729.0,STARLINK-3523,PAYLOAD,2024-07-10 07:55:14,15.08838591,0.0001359,53.2159,165.6629,94.5664,265.5484,1.6622e-05,-2.3e-07,0.0,0 STARLINK-3523,1 51729U 22016R   24192.33002777 -.00000023  00000-0  16622-4 0  9999,2 51729  53.2159 165.6629 0001359  94.5664 265.5484 15.08838591131870,6917.885,95.438,540.69,538.81,0.0
51729.0,STARLINK-3523,PAYLOAD,2024-07-10 15:52:09,15.08842384,0.0001356,53.216,164.1765,93.528,266.5867,4.6038e-05,4.45e-06,0.0,0 STARLINK-3523,1 51729U 22016R   24192.66122432  .00000445  00000-0  46038-4 0  9997,2 51729  53.2160 164.1765 0001356  93.5280 266.5867 15.08842384131924,6917.873,95.437,540.676,538.8,0.0
51729.0,STARLINK-3523,PAYLOAD,2024-07-11 07:46:01,15.08840224,0.0001414,53.2165,161.2032,95.3011,264.8143,5.9652e-05,6.62e-06,0.0,0 STARLINK-3523,1 51729U 22016R   24193.32362585  .00000662  00000-0  59652-4 0  9993,2 51729  53.2165 161.2032 0001414  95.3011 264.8143 15.08840224132022,6917.88,95.438,540.723,538.767,0.0
51729.0,STARLINK-3523,PAYLOAD,2024-07-12 04:26:02,15.08832749,0.000142,53.2167,157.3385,87.9448,272.1706,1.2142e-05,-9.5e-07,0.0,0 STARLINK-3523,1 51729U 22016R   24194.18475445 -.00000095  00000-0  12142-4 0  9992,2 51729  53.2167 157.3385 0001420  87.9448 272.1706 15.08832749133288,6917.903,95.438,540.75,538.785,0.0
51729.0,STARLINK-3523,PAYLOAD,2024-07-12 20:19:53,15.08840812,0.000133,53.2164,154.3611,91.7267,268.3878,4.3859e-05,4.1e-06,0.0,0 STARLINK-3523,1 51729U 22016R   24194.84714898  .00000410  00000-0  43859-4 0  9992,2 51729  53.2164 154.3611 0001330  91.7267 268.3878 15.08840812133384,6917.878,95.438,540.663,538.823,0.0
51729.0,STARLINK-3523,PAYLOAD,2024-07-13 04:16:48,15.088508,0.0001309,53.2159,152.8785,86.6108,273.5034,0.00012837,1.756e-05,0.0,0 STARLINK-3523,1 51729U 22016R   24195.17833909  .00001756  00000-0  12837-3 0  9999,2 51729  53.2159 152.8785 0001309  86.6108 273.5034 15.08850800133432,6917.847,95.437,540.618,538.807,0.0
51729.0,STARLINK-3523,PAYLOAD,2024-07-13 13:49:06,15.08862802,0.0001261,53.2162,151.0934,90.3271,269.7866,0.00017051,2.428e-05,0.0,0 STARLINK-3523,1 51729U 22016R   24195.57576689  .00002428  00000-0  17051-3 0  9992,2 51729  53.2162 151.0934 0001261  90.3271 269.7866 15.08862802132369,6917.811,95.436,540.548,538.803,0.0
51729.0,STARLINK-3523,PAYLOAD,2024-07-13 21:46:05,15.08818163,0.0001146,53.2152,149.6061,70.7116,289.4,-9.3785e-05,-1.779e-05,0.0,0 STARLINK-3523,1 51729U 22016R   24195.90700481 -.00001779  00000-0 -93785-4 0  9997,2 51729  53.2152 149.6061 0001146  70.7116 289.4000 15.08818163133545,6917.947,95.439,540.605,539.019,0.0
51729.0,STARLINK-3523,PAYLOAD,2024-07-14 04:07:37,15.08828479,0.0001253,53.216,148.4177,83.4655,276.6479,3.9294e-06,-2.25e-06,0.0,0 STARLINK-3523,1 51729U 22016R   24196.17195880 -.00000225  00000-0  39294-5 0  9998,2 51729  53.2160 148.4177 0001253  83.4655 276.6479 15.08828479133580,6917.916,95.438,540.647,538.914,0.0
51729.0,STARLINK-3523,PAYLOAD,2024-07-14 13:39:55,15.08838854,0.0001364,53.2155,146.6337,83.2041,276.9106,-5.0248e-06,-3.68e-06,0.0,0 STARLINK-3523,1 51729U 22016R   24196.56938892 -.00000368  00000-0 -50248-5 0  9990,2 51729  53.2155 146.6337 0001364  83.2041 276.9106 15.08838854132512,6917.884,95.438,540.692,538.805,0.0
51729.0,STARLINK-3523,PAYLOAD,2024-07-15 03:58:22,15.08852758,0.0001328,53.2151,143.9562,85.5614,274.553,0.00028388,4.234e-05,0.0,0 STARLINK-3523,1 51729U 22016R   24197.16554353  .00004234  00000-0  28388-3 0  9995,2 51729  53.2151 143.9562 0001328  85.5614 274.5530 15.08852758133738,6917.841,95.437,540.625,538.788,0.0
51729.0,STARLINK-3523,PAYLOAD,2024-07-15 13:30:41,15.08856185,0.000137,53.2154,142.1725,87.3049,272.81,0.0003869,5.878e-05,0.0,0 STARLINK-3523,1 51729U 22016R   24197.56298109  .00005878  00000-0  38690-3 0  9995,2 51729  53.2154 142.1725 0001370  87.3049 272.8100 15.08856185132665,6917.831,95.437,540.644,538.748,0.0
51729.0,STARLINK-3523,PAYLOAD,2024-07-16 05:24:33,15.08840957,0.0001689,53.2159,139.1996,88.8132,271.3053,0.00021653,3.16e-05,0.0,0 STARLINK-3523,1 51729U 22016R   24198.22539203  .00003160  00000-0  21653-3 0  9995,2 51729  53.2159 139.1996 0001689  88.8132 271.3053 15.08840957133895,6917.877,95.437,540.911,538.574,0.0
51729.0,STARLINK-3523,PAYLOAD,2024-07-17 05:15:21,15.08833679,0.0001775,53.2161,134.7341,91.8406,268.2789,8.6411e-05,1.087e-05,0.0,0 STARLINK-3523,1 51729U 22016R   24199.21899856  .00001087  00000-0  86411-4 0  9998,2 51729  53.2161 134.7341 0001775  91.8406 268.2789 15.08833679134049,6917.9,95.438,540.993,538.537,0.0
51729.0,STARLINK-3523,PAYLOAD,2024-07-17 13:12:16,15.08850042,0.0001784,53.2164,133.2494,95.6453,264.4743,0.0005938,9.178e-05,0.0,0 STARLINK-3523,1 51729U 22016R   24199.55019443  .00009178  00000-0  59380-3 0  9994,2 51729  53.2164 133.2494 0001784  95.6453 264.4743 15.08850042134095,6917.85,95.437,540.949,538.481,0.0
51729.0,STARLINK-3523,PAYLOAD,2024-07-18 05:06:08,15.08844823,0.0001692,53.2161,130.2736,105.8431,254.2748,0.00059324,9.167e-05,0.0,0 STARLINK-3523,1 51729U 22016R   24200.21259812  .00009167  00000-0  59324-3 0  9992,2 51729  53.2161 130.2736 0001692 105.8431 254.2748 15.08844823134199,6917.866,95.437,540.901,538.56,0.0
51729.0,STARLINK-3523,PAYLOAD,2024-07-18 13:03:03,15.08858288,0.0001651,53.2159,128.7887,103.9337,256.1839,0.0011166,0.00017536,0.0,0 STARLINK-3523,1 51729U 22016R   24200.54379625  .00017536  00000-0  11166-2 0  9993,2 51729  53.2159 128.7887 0001651 103.9337 256.1839 15.08858288133117,6917.824,95.436,540.832,538.547,0.0
51729.0,STARLINK-3523,PAYLOAD,2024-07-18 22:35:22,15.08851617,0.0002641,53.2165,127.0018,136.3709,223.7492,0.00062253,9.637e-05,0.0,0 STARLINK-3523,1 51729U 22016R   24200.94123585  .00009637  00000-0  62253-3 0  9996,2 51729  53.2165 127.0018 0002641 136.3709 223.7492 15.08851617133175,6917.845,95.437,541.537,537.883,0.0
51729.0,STARLINK-3523,PAYLOAD,2024-07-19 01:46:09,15.08840991,0.0001526,53.2157,126.4133,92.5273,267.5894,0.00046543,7.127e-05,0.0,0 STARLINK-3523,1 51729U 22016R   24201.07371983  .00007127  00000-0  46543-3 0  9994,2 51729  53.2157 126.4133 0001526  92.5273 267.5894 15.08840991134320,6917.877,95.437,540.798,538.687,0.0
